GLOBALSTAR M023         
1 25621U 99004A   25106.78192955 -.00000092  00000+0  64502-4 0  9990
2 25621  52.0100 240.4223 0009207 354.5730 153.0930 12.62505449207972
GLOBALSTAR M040         
1 25622U 99004B   25106.81339988 -.00000041  00000+0  34886-3 0  9999
2 25622  51.9910 244.3896 0000511 193.7937 318.0463 12.62007620207501
GLOBALSTAR M036         
1 25623U 99004C   25106.79272241 -.00000022  00000+0  87736-3 0  9996
2 25623  51.9988  42.1413 0010837 297.7514  84.4207 11.86594063171691
GLOBALSTAR M038         
1 25624U 99004D   25106.80680450 -.00000047  00000+0  39663-3 0  9997
2 25624  51.9966 248.3401 0001081 276.1841 231.7257 12.32525007194804
GLOBALSTAR M022         
1 25649U 99012A   25106.75543814 -.00000094  00000+0 -90958-4 0  9997
2 25649  52.0021  97.8987 0002639  52.8741 118.6031 12.02499001168983
GLOBALSTAR M041         
1 25650U 99012B   25106.90943512 -.00000061  00000+0  31921-3 0  9992
2 25650  52.0046 337.0700 0001528 166.2931 193.7948 11.96670500170948
GLOBALSTAR M037         
1 25652U 99012D   25106.90124075 -.00000096  00000+0  42759-4 0  9999
2 25652  52.0033  10.7006 0002693  57.3489  22.4226 12.62443092203539
